TEVEL2-3                
1 63218U 25052J   26068.64540225  .00020365  00000+0  69446-3 0  9991
2 63218  97.3994 324.7775 0004761 105.7353 254.4413 15.30377031 54855
STARLINK-34999          
1 65222U 25176AA  26068.47396430  .00015522  00000+0  53501-3 0  9997
2 65222  53.1599 153.9922 0001307 105.6394 254.4751 15.30205110 33081
